{"type": "FeatureCollection", "features": [ {"type": "Feature", "properties": {"norad_id": 66052, "name": "HRC MONOBLOCK CAMERA", "group": "stations", "lat": 51.225935101377075, "lon": -107.76657183010161, "alt_km": 397.84934636126127, "timestamp": "2025-12-10T11:33:52.187765+00:00", "meta": {"OBJECT_NAME": "HRC MONOBLOCK CAMERA", "OBJECT_ID": "1998-067XR", "EPOCH": "2025-12-10T01:53:33.064224", "MEAN_MOTION": 15.53848796, "ECCENTRICITY": 0.0003676, "INCLINATION": 51.6293, "RA_OF_ASC_NODE": 154.772, "ARG_OF_PERICENTER": 173.0963, "MEAN_ANOMALY": 187.0078, "EPHEMERIS_TYPE": 0, "CLASSIFICATION_TYPE": "U", "NORAD_CAT_ID": 66052, "ELEMENT_SET_NO": 999, "REV_AT_EPOCH": 842, "BSTAR": 0.00070943, "MEAN_MOTION_DOT": 0.00046287, "MEAN_MOTION_DDOT": 0}, "tle": {"line1": "1 66052U 98067XR  25344.07885491  .00046287  00000+0  70943-3 0  9991", "line2": "2 66052  51.6293 154.7720 0003676 173.0963 187.0078 15.53848796  8425"}}, "geometry": {"type": "Point", "coordinates": [-107.76657183010161, 51.225935101377075]}}, {"type": "Feature", "properties": {"norad_id": 66174, "name": "HTV-X1", "group": "stations", "lat": 19.718062549815556, "lon": 170.15434726744783, "alt_km": 418.25104191526225, "timestamp": "2025-12-10T11:33:52.187775+00:00", "meta": {"OBJECT_NAME": "HTV-X1", "OBJECT_ID": "2025-241A", "EPOCH": "2025-12-09T12:14:10.839552", "MEAN_MOTION": 15.49447168, "ECCENTRICITY": 0.00034, "INCLINATION": 51.631, "RA_OF_ASC_NODE": 158.4724, "ARG_OF_PERICENTER": 223.8185, "MEAN_ANOMALY": 136.2534, "EPHEMERIS_TYPE": 0, "CLASSIFICATION_TYPE": "U", "NORAD_CAT_ID": 66174, "ELEMENT_SET_NO": 999, "REV_AT_EPOCH": 51, "BSTAR": 0.00026025969, "MEAN_MOTION_DOT": 0.00014141, "MEAN_MOTION_DDOT": 0}, "tle": {"line1": "1 66174U 25241A   25343.50984768  .00014141  00000+0  26026-3 0  9991", "line2": "2 66174  51.6310 158.4724 0003400 223.8185 136.2534 15.49447168   518"}}, "geometry": {"type": "Point", "coordinates": [170.15434726744783, 19.718062549815556]}}, {"type": "Feature", "properties": {"norad_id": 66515, "name": "SZ-21 MODULE", "group": "stations", "lat": -37.55708559432548, "lon": -30.69038906327954, "alt_km": 380.89107453245015, "timestamp": "2025-12-10T11:33:52.187785+00:00", "meta": {"OBJECT_NAME": "SZ-21 MODULE", "OBJECT_ID": "2025-246C", "EPOCH": "2025-12-10T04:10:45.551712", "MEAN_MOTION": 15.62287681, "ECCENTRICITY": 0.0006304, "INCLINATION": 41.4772, "RA_OF_ASC_NODE": 31.6946, "ARG_OF_PERICENTER": 246.4394, "MEAN_ANOMALY": 113.5783, "EPHEMERIS_TYPE": 0, "CLASSIFICATION_TYPE": "U", "NORAD_CAT_ID": 66515, "ELEMENT_SET_NO": 999, "REV_AT_EPOCH": 404, "BSTAR": 0.00037413, "MEAN_MOTION_DOT": 0.00033821, "MEAN_MOTION_DDOT": 0}, "tle": {"line1": "1 66515U 25246C   25344.17413833  .00033821  00000+0  37413-3 0  9997", "line2": "2 66515  41.4772  31.6946 0006304 246.4394 113.5783 15.62287681  4046"}}, "geometry": {"type": "Point", "coordinates": [-30.69038906327954, -37.55708559432548]}}, {"type": "Feature", "properties": {"norad_id": 66645, "name": "SHENZHOU-22", "group": "stations", "lat": 31.207155481834942, "lon": 73.72559761700536, "alt_km": 380.6856836667748, "timestamp": "2025-12-10T11:33:52.187795+00:00", "meta": {"OBJECT_NAME": "SHENZHOU-22", "OBJECT_ID": "2025-272A", "EPOCH": "2025-12-09T13:49:14.456064", "MEAN_MOTION": 15.58965688, "ECCENTRICITY": 0.00089597, "INCLINATION": 41.4682, "RA_OF_ASC_NODE": 35.9133, "ARG_OF_PERICENTER": 5.1145, "MEAN_ANOMALY": 354.9784, "EPHEMERIS_TYPE": 0, "CLASSIFICATION_TYPE": "U", "NORAD_CAT_ID": 66645, "ELEMENT_SET_NO": 999, "REV_AT_EPOCH": 26300, "BSTAR": 0.00041052725, "MEAN_MOTION_DOT": 0.00032682, "MEAN_MOTION_DDOT": 0}, "tle": {"line1": "1 66645U 25272A   25343.57586176  .00032682  00000+0  41053-3 0  9993", "line2": "2 66645  41.4682  35.9133 0008959   5.1145 354.9784 15.58965688263007"}}, "geometry": {"type": "Point", "coordinates": [73.72559761700536, 31.207155481834942]}}, {"type": "Feature", "properties": {"norad_id": 66664, "name": "SOYUZ-MS 28", "group": "stations", "lat": 19.719762048036298, "lon": 170.15644263428942, "alt_km": 418.19838134924794, "timestamp": "2025-12-10T11:33:52.187804+00:00", "meta": {"OBJECT_NAME": "SOYUZ-MS 28", "OBJECT_ID": "2025-275A", "EPOCH": "2025-12-09T21:31:25.697280", "MEAN_MOTION": 15.4945904, "ECCENTRICITY": 0.0003347, "INCLINATION": 51.6313, "RA_OF_ASC_NODE": 156.5563, "ARG_OF_PERICENTER": 226.2924, "MEAN_ANOMALY": 133.7787, "EPHEMERIS_TYPE": 0, "CLASSIFICATION_TYPE": "U", "NORAD_CAT_ID": 66664, "ELEMENT_SET_NO": 999, "REV_AT_EPOCH": 200, "BSTAR": 0.00027325, "MEAN_MOTION_DOT": 0.00014877, "MEAN_MOTION_DDOT": 0}, "tle": {"line1": "1 66664U 25275A   25343.89682520  .00014877  00000+0  27325-3 0  9994", "line2": "2 66664  51.6313 156.5563 0003347 226.2924 133.7787 15.49459040  2003"}}, "geometry": {"type": "Point", "coordinates": [170.15644263428942, 19.719762048036298]}}, {"type": "Feature", "properties": {"norad_id": 66906, "name": "1998-067XS", "group": "stations", "lat": 35.067012180270645, "lon": -172.5960684342564, "alt_km": 413.1638622507271, "timestamp": "2025-12-10T11:33:52.187814+00:00", "meta": {"OBJECT_NAME": "1998-067XS", "OBJECT_ID": "1998-067XS", "EPOCH": "2025-12-10T00:31:58.658880", "MEAN_MOTION": 15.50350034, "ECCENTRICITY": 0.0003912, "INCLINATION": 51.6303, "RA_OF_ASC_NODE": 155.8936, "ARG_OF_PERICENTER": 190.7132, "MEAN_ANOMALY": 169.3774, "EPHEMERIS_TYPE": 0, "CLASSIFICATION_TYPE": "U", "NORAD_CAT_ID": 66906, "ELEMENT_SET_NO": 999, "REV_AT_EPOCH": 119, "BSTAR": 0.00063424, "MEAN_MOTION_DOT": 0.00036365, "MEAN_MOTION_DDOT": 0}, "tle": {"line1": "1 66906U 98067XS  25344.02220670  .00036365  00000+0  63424-3 0  9998", "line2": "2 66906  51.6303 155.8936 0003912 190.7132 169.3774 15.50350034  1196"}}, "geometry": {"type": "Point", "coordinates": [-172.5960684342564, 35.067012180270645]}}, {"type": "Feature", "properties": {"norad_id": 66907, "name": "1998-067XT", "group": "stations", "lat": 40.60402246755226, "lon": -163.62710045430285, "alt_km": 411.24307387717, "timestamp": "2025-12-10T11:33:52.187824+00:00", "meta": {"OBJECT_NAME": "1998-067XT", "OBJECT_ID": "1998-067XT", "EPOCH": "2025-12-09T12:07:37.114752", "MEAN_MOTION": 15.50864429, "ECCENTRICITY": 0.00048036, "INCLINATION": 51.6307, "RA_OF_ASC_NODE": 158.4423, "ARG_OF_PERICENTER": 208.5081, "MEAN_ANOMALY": 151.5646, "EPHEMERIS_TYPE": 0, "CLASSIFICATION_TYPE": "U", "NORAD_CAT_ID": 66907, "ELEMENT_SET_NO": 999, "REV_AT_EPOCH": 111, "BSTAR": 0.0012921241, "MEAN_MOTION_DOT": 0.00076342, "MEAN_MOTION_DDOT": 0}, "tle": {"line1": "1 66907U 98067XT  25343.50529068  .00076342  00000+0  12921-2 0  9998", "line2": "2 66907  51.6307 158.4423 0004803 208.5081 151.5646 15.50864429  1113"}}, "geometry": {"type": "Point", "coordinates": [-163.62710045430285, 40.60402246755226]}}, {"type": "Feature", "properties": {"norad_id": 66908, "name": "1998-067XU", "group": "stations", "lat": 41.351607983557955, "lon": -162.19648072903576, "alt_km": 411.0209771992086, "timestamp": "2025-12-10T11:33:52.187836+00:00", "meta": {"OBJECT_NAME": "1998-067XU", "OBJECT_ID": "1998-067XU", "EPOCH": "2025-12-09T22:56:49.308000", "MEAN_MOTION": 15.50986187, "ECCENTRICITY": 0.0004997, "INCLINATION": 51.6304, "RA_OF_ASC_NODE": 156.202, "ARG_OF_PERICENTER": 209.1255, "MEAN_ANOMALY": 150.9456, "EPHEMERIS_TYPE": 0, "CLASSIFICATION_TYPE": "U", "NORAD_CAT_ID": 66908, "ELEMENT_SET_NO": 999, "REV_AT_EPOCH": 118, "BSTAR": 0.0013761, "MEAN_MOTION_DOT": 0.00081745, "MEAN_MOTION_DDOT": 0}, "tle": {"line1": "1 66908U 98067XU  25343.95612625  .00081745  00000+0  13761-2 0  9996", "line2": "2 66908  51.6304 156.2020 0004997 209.1255 150.9456 15.50986187  1189"}}, "geometry": {"type": "Point", "coordinates": [-162.19648072903576, 41.351607983557955]}}, {"type": "Feature", "properties": {"norad_id": 66909, "name": "SILVERSAT", "group": "stations", "lat": 42.04155394923157, "lon": -160.8150569511139, "alt_km": 410.5547578125779, "timestamp": "2025-12-10T11:33:52.187847+00:00", "meta": {"OBJECT_NAME": "SILVERSAT", "OBJECT_ID": "1998-067XV", "EPOCH": "2025-12-09T19:50:59.695584", "MEAN_MOTION": 15.51056405, "ECCENTRICITY": 0.0004877, "INCLINATION": 51.6304, "RA_OF_ASC_NODE": 156.8402, "ARG_OF_PERICENTER": 210.6195, "MEAN_ANOMALY": 149.451, "EPHEMERIS_TYPE": 0, "CLASSIFICATION_TYPE": "U", "NORAD_CAT_ID": 66909, "ELEMENT_SET_NO": 999, "REV_AT_EPOCH": 116, "BSTAR": 0.00154, "MEAN_MOTION_DOT": 0.00091886, "MEAN_MOTION_DDOT": 0}, "tle": {"line1": "1 66909U 98067XV  25343.82707981  .00091886  00000+0  15400-2 0  9992", "line2": "2 66909  51.6304 156.8402 0004877 210.6195 149.4510 15.51056405  1161"}}, "geometry": {"type": "Point", "coordinates": [-160.8150569511139, 42.04155394923157]}}, {"type": "Feature", "properties": {"norad_id": 66910, "name": "1998-067XW", "group": "stations", "lat": 45.639712108886705, "lon": -152.31136237614228, "alt_km": 409.067242075188, "timestamp": "2025-12-10T11:33:52.187857+00:00", "meta": {"OBJECT_NAME": "1998-067XW", "OBJECT_ID": "1998-067XW", "EPOCH": "2025-12-09T18:16:30.088704", "MEAN_MOTION": 15.51233501, "ECCENTRICITY": 0.0005725, "INCLINATION": 51.6303, "RA_OF_ASC_NODE": 157.1524, "ARG_OF_PERICENTER": 193.6821, "MEAN_ANOMALY": 166.4014, "EPHEMERIS_TYPE": 0, "CLASSIFICATION_TYPE": "U", "NORAD_CAT_ID": 66910, "ELEMENT_SET_NO": 999, "REV_AT_EPOCH": 115, "BSTAR": 0.0012863, "MEAN_MOTION_DOT": 0.00077029, "MEAN_MOTION_DDOT": 0}, "tle": {"line1": "1 66910U 98067XW  25343.76145936  .00077029  00000+0  12863-2 0  9996", "line2": "2 66910  51.6303 157.1524 0005725 193.6821 166.4014 15.51233501  1151"}}, "geometry": {"type": "Point", "coordinates": [-152.31136237614228, 45.639712108886705]}}]}